IRIDIUM 106             
1 41917U 17003A   25141.83363852 -.00000024  00000+0 -15562-4 0  9994
2 41917  86.3971 252.0131 0002686  96.1505 263.9997 14.34217352437113
IRIDIUM 103             
1 41918U 17003B   25141.82095242 -.00000032  00000+0 -18396-4 0  9996
2 41918  86.3970 251.9193 0002181 112.0116 248.1312 14.34217277437140
IRIDIUM 109             
1 41919U 17003C   25141.54822009  .00000004  00000+0 -56035-5 0  9996
2 41919  86.3972 252.0863 0001995  99.3703 260.7718 14.34217541437065
IRIDIUM 102             
1 41920U 17003D   25141.79558235  .00000034  00000+0  52224-5 0  9990
2 41920  86.3971 251.9145 0002204  92.6276 267.5172 14.34217128437185
IRIDIUM 105             
1 41921U 17003E   25141.48724669  .00000142  00000+0  43630-4 0  9993
2 41921  86.4010 220.4996 0002231 100.7671 259.3776 14.34218476438992
IRIDIUM 104             
1 41922U 17003F   25141.80826625 -.00000019  00000+0 -13818-4 0  9995
2 41922  86.3972 251.9462 0001812 104.7768 255.3629 14.34217376437171
IRIDIUM 114             
1 41923U 17003G   25141.53553533 -.00000002  00000+0 -76588-5 0  9997
2 41923  86.3972 252.0449 0002218 103.5183 256.6260 14.34217565437117
IRIDIUM 108             
1 41924U 17003H   25141.49405747  .00000035  00000+0  55201-5 0  9999
2 41924  86.4004 220.3997 0002499  92.4958 267.6524 14.34217500438966
